[{"OBJECT_NAME":"YUNHAI-1 04","OBJECT_ID":"2023-159A","EPOCH":"2026-03-09T23:32:58.106976","MEAN_MOTION":14.32660643,"ECCENTRICITY":0.00021766,"INCLINATION":98.5096,"RA_OF_ASC_NODE":96.5782,"ARG_OF_PERICENTER":112.1327,"MEAN_ANOMALY":248.0088,"EPHEMERIS_TYPE":0,"CLASSIFICATION_TYPE":"U","NORAD_CAT_ID":58073,"ELEMENT_SET_NO":999,"REV_AT_EPOCH":12559,"BSTAR":0.0001354342,"MEAN_MOTION_DOT":3.25e-6,"MEAN_MOTION_DDOT":0},{"OBJECT_NAME":"COSMOS 1937","OBJECT_ID":"1988-029A","EPOCH":"2026-03-09T21:48:41.896800","MEAN_MOTION":14.36122746,"ECCENTRICITY":0.00231923,"INCLINATION":74.0444,"RA_OF_ASC_NODE":286.8147,"ARG_OF_PERICENTER":35.2091,"MEAN_ANOMALY":70.0638,"EPHEMERIS_TYPE":0,"CLASSIFICATION_TYPE":"U","NORAD_CAT_ID":19038,"ELEMENT_SET_NO":999,"REV_AT_EPOCH":98549,"BSTAR":5.5374425e-5,"MEAN_MOTION_DOT":1.36e-6,"MEAN_MOTION_DDOT":0}]
